OBJECT_NAME,OBJECT_ID,EPOCH,MEAN_MOTION,ECCENTRICITY,INCLINATION,RA_OF_ASC_NODE,ARG_OF_PERICENTER,MEAN_ANOMALY,EPHEMERIS_TYPE,CLASSIFICATION_TYPE,NORAD_CAT_ID,ELEMENT_SET_NO,REV_AT_EPOCH,BSTAR,MEAN_MOTION_DOT,MEAN_MOTION_DDOT
H-2A R/B,2006-002B,2026-06-05T04:32:39.079680,15.17906946,.00497822,98.2559,310.9352,304.0875,55.5637,0,U,28932,999,10770,.30191521E-3,.6239E-4,0
RESURS-DK 1,2006-021A,2026-06-05T00:06:16.666848,15.13160902,.00061257,69.9334,11.0884,302.3311,57.7262,0,U,29228,999,10073,.1580935E-3,.2703E-4,0
CZ-4B R/B,2006-046C,2026-06-04T15:50:55.754592,15.17688077,.00316338,97.5456,200.3066,328.2337,31.6987,0,U,29507,999,7323,.25463864E-3,.5127E-4,0
CZ-2C R/B,2007-010B,2026-06-05T00:19:02.805888,14.20273352,.00596977,98.4089,264.9604,41.2975,319.2695,0,U,31114,999,99211,.72965187E-4,.118E-5,0
COSMO-SKYMED 1,2007-023A,2026-06-05T07:18:39.009888,14.97046684,.00014467,97.8862,348.0616,80.8486,279.2899,0,U,31598,999,2801,.18002542E-3,.2014E-4,0
COSMOS 2428,2007-029A,2026-06-05T00:54:07.483104,14.12931038,.00073063,70.9379,19.9881,158.4041,201.7390,0,U,31792,999,97643,-.70498223E-4,-.179E-5,0
SL-16 R/B,2007-029B,2026-06-05T07:47:28.000896,14.14848221,.00022813,70.9758,348.1665,258.1087,275.2376,0,U,31793,999,97776,.14260356E-3,.227E-5,0
KORONAS-FOTON,2009-003A,2026-06-05T14:51:38.131776,15.45475406,.0010409,82.4288,184.3246,186.7905,173.3204,0,U,33504,999,95931,.23729E-3,.11429E-3,0
CZ-2C R/B,2011-030B,2026-06-05T03:27:31.476384,14.81441514,.00537636,97.8650,111.7485,66.3512,304.7101,0,U,37731,999,80304,.19635395E-3,.1521E-4,0
H-2A R/B,2012-025E,2026-06-03T23:27:54.868896,14.95639537,.00447139,98.4819,129.0360,31.6803,328.7092,0,U,38341,999,76111,.26873077E-3,.2976E-4,0
SHIJIAN-16 (SJ-16),2013-057A,2026-06-05T07:24:11.712096,14.92586216,.0016965,74.9731,19.1822,258.2504,101.6781,0,U,39358,999,68457,.19840536E-3,.2017E-4,0
SL-4 R/B,2014-021B,2026-06-03T15:31:29.208576,15.41642817,.00917058,51.6063,277.0919,56.7885,304.1851,0,U,39679,999,66952,.25569107E-3,.12294E-3,0
ALOS-2,2014-029A,2026-06-05T15:23:51.985824,14.79463866,.0001635,97.9217,253.9710,98.7898,261.3499,0,U,39766,999,64987,.25859E-3,.188E-4,0
YAOGAN-29,2015-069A,2026-06-05T07:16:53.112000,14.83075149,.00029513,98.0027,184.9173,73.8562,286.2976,0,U,41038,999,56886,.78951807E-4,.589E-5,0
ASTRO-H (HITOMI),2016-012A,2026-06-05T06:31:21.208800,15.10458029,.00095181,30.9975,151.1388,133.9803,226.1622,0,U,41337,999,56548,.12892821E-3,.2271E-4,0
HXMT (HUIYAN),2017-034A,2026-06-05T07:03:10.016352,15.18382781,.00302279,43.0136,249.2636,68.5173,291.8895,0,U,42758,999,49585,.22675427E-3,.4558E-4,0
SAOCOM 1A,2018-076A,2026-06-05T07:43:15.177216,14.82163667,.00015201,97.8880,343.2427,77.2123,282.9260,0,U,43641,999,41434,.2139295E-5,-.35E-6,0
H-2A R/B,2018-084L,2026-06-04T05:44:20.032800,15.44635255,.00245616,98.8590,31.3044,83.7841,276.6200,0,U,43682,999,41912,.42717046E-3,.20027E-3,0
SAOCOM 1B,2020-059A,2026-06-05T06:51:03.477024,14.82162467,.00015075,97.8885,342.3012,80.9807,279.1576,0,U,46265,999,31172,.10527716E-3,.786E-5,0
CSS (TIANHE),2021-035A,2026-06-05T01:46:04.270656,15.60275999,.00095692,41.4694,35.6942,344.8796,15.1755,0,U,48274,999,29127,.31557792E-3,.26328E-3,0
COSMOS 2550,2021-056A,2026-06-03T06:21:27.029088,15.33822322,.00082078,67.1411,142.0174,269.6582,90.3631,0,U,48865,999,27658,.18579141E-3,.5924E-4,0
CZ-2C R/B,2022-058K,2026-06-03T16:11:44.748672,15.60905044,.00333564,50.1849,233.7798,210.9387,148.9621,0,U,52794,999,22353,.46258954E-3,.40279E-3,0
CZ-2C R/B,2022-132E,2026-06-04T23:38:20.190624,15.70074527,.00171523,97.2905,162.4770,121.9351,238.3582,0,U,54039,999,20403,.49482061E-3,.60251E-3,0
GSLV R/B,2022-138AN,2026-06-05T05:18:21.345696,14.97201059,.00207965,87.3797,137.0028,185.8987,174.2004,0,U,54149,999,19702,.26374132E-3,.309E-4,0
XRISM,2023-137A,2026-06-05T04:18:02.187936,15.12356851,.00078665,31.0024,77.3767,204.1221,155.9050,0,U,57800,999,15104,.25675504E-3,.4664E-4,0
ACS3,2024-077B,2026-06-05T01:46:18.469632,13.93538870,.00443486,97.1693,77.5658,65.8715,294.7080,0,U,59588,999,10635,.38618458E-1,.51367E-3,0
CZ-8A R/B,2025-231K,2026-06-05T12:32:55.167936,14.30151625,.0116477,50.0036,88.9409,182.9341,177.0904,0,U,66004,999,3327,.38308E-4,-.57E-6,0
SZ-21 MODULE,2025-246C,2026-06-01T22:35:51.528768,15.75039202,.00071014,41.4749,42.1841,261.1371,98.8669,0,U,66515,999,3133,.30884922E-3,.47427E-3,0
