H-2A R/B                
1 28932U 06002B   26156.18934120  .00006239  00000+0  30192-3 0  9997
2 28932  98.2559 310.9352 0049782 304.0875  55.5637 15.17906946107708
RESURS-DK 1             
1 29228U 06021A   26156.00435957  .00002703  00000+0  15809-3 0  9992
2 29228  69.9334  11.0884 0006125 302.3311  57.7262 15.13160902100736
CZ-4B R/B               
1 29507U 06046C   26155.66036753  .00005127  00000+0  25464-3 0  9992
2 29507  97.5456 200.3066 0031633 328.2337  31.6987 15.17688077 73231
CZ-2C R/B               
1 31114U 07010B   26156.01322692  .00000118  00000+0  72965-4 0  9995
2 31114  98.4089 264.9604 0059697  41.2975 319.2695 14.20273352992111
COSMO-SKYMED 1          
1 31598U 07023A   26156.30461817  .00002014  00000+0  18003-3 0  9999
2 31598  97.8862 348.0616 0001446  80.8486 279.2899 14.97046684 28011
COSMOS 2428             
1 31792U 07029A   26156.03758661 -.00000179  00000+0 -70498-4 0  9996
2 31792  70.9379  19.9881 0007306 158.4041 201.7390 14.12931038976437
SL-16 R/B               
1 31793U 07029B   26156.32462964  .00000227  00000+0  14260-3 0  9993
2 31793  70.9758 348.1665 0002281 258.1087 275.2376 14.14848221977761
KORONAS-FOTON           
1 33504U 09003A   26156.61919134  .00011429  00000+0  23729-3 0  9993
2 33504  82.4288 184.3246 0010409 186.7905 173.3204 15.45475406959315
CZ-2C R/B               
1 37731U 11030B   26156.14411431  .00001521  00000+0  19635-3 0  9990
2 37731  97.8650 111.7485 0053763  66.3512 304.7101 14.81441514803046
H-2A R/B                
1 38341U 12025E   26154.97771839  .00002976  00000+0  26873-3 0  9990
2 38341  98.4819 129.0360 0044713  31.6803 328.7092 14.95639537761110
SHIJIAN-16 (SJ-16)      
1 39358U 13057A   26156.30846889  .00002017  00000+0  19841-3 0  9995
2 39358  74.9731  19.1822 0016965 258.2504 101.6781 14.92586216684575
SL-4 R/B                
1 39679U 14021B   26154.64686584  .00012294  00000+0  25569-3 0  9994
2 39679  51.6063 277.0919 0091705  56.7885 304.1851 15.41642817669522
ALOS-2                  
1 39766U 14029A   26156.64157391  .00001880  00000+0  25859-3 0  9991
2 39766  97.9217 253.9710 0001635  98.7898 261.3499 14.79463866649871
YAOGAN-29               
1 41038U 15069A   26156.30339250  .00000589  00000+0  78952-4 0  9998
2 41038  98.0027 184.9173 0002951  73.8562 286.2976 14.83075149568860
ASTRO-H (HITOMI)        
1 41337U 16012A   26156.27177325  .00002271  00000+0  12893-3 0  9999
2 41337  30.9975 151.1388 0009518 133.9803 226.1622 15.10458029565484
HXMT (HUIYAN)           
1 42758U 17034A   26156.29386593  .00004558  00000+0  22675-3 0  9992
2 42758  43.0136 249.2636 0030227  68.5173 291.8895 15.18382781495858
SAOCOM 1A               
1 43641U 18076A   26156.32170344 -.00000035  00000+0  21393-5 0  9995
2 43641  97.8880 343.2427 0001520  77.2123 282.9260 14.82163667414344
H-2A R/B                
1 43682U 18084L   26155.23912075  .00020027  00000+0  42717-3 0  9996
2 43682  98.8590  31.3044 0024561  83.7841 276.6200 15.44635255419128
SAOCOM 1B               
1 46265U 20059A   26156.28545691  .00000786  00000+0  10528-3 0  9998
2 46265  97.8885 342.3012 0001507  80.9807 279.1576 14.82162467311722
CSS (TIANHE)            
1 48274U 21035A   26156.07366054  .00026328  00000+0  31558-3 0  9992
2 48274  41.4694  35.6942 0009569 344.8796  15.1755 15.60275999291272
COSMOS 2550             
1 48865U 21056A   26154.26489617  .00005924  00000+0  18579-3 0  9998
2 48865  67.1411 142.0174 0008207 269.6582  90.3631 15.33822322276588
CZ-2C R/B               
1 52794U 22058K   26154.67482348  .00040279  00000+0  46259-3 0  9994
2 52794  50.1849 233.7798 0033356 210.9387 148.9621 15.60905044223535
CZ-2C R/B               
1 54039U 22132E   26155.98495591  .00060251  00000+0  49482-3 0  9993
2 54039  97.2905 162.4770 0017152 121.9351 238.3582 15.70074527204038
GSLV R/B                
1 54149U 22138AN  26156.22108039  .00003090  00000+0  26374-3 0  9990
2 54149  87.3797 137.0028 0020796 185.8987 174.2004 14.97201059197022
XRISM                   
1 57800U 23137A   26156.17919199  .00004664  00000+0  25676-3 0  9990
2 57800  31.0024  77.3767 0007866 204.1221 155.9050 15.12356851151041
ACS3                    
1 59588U 24077B   26156.07382488  .00051367  00000+0  38618-1 0  9993
2 59588  97.1693  77.5658 0044348  65.8715 294.7080 13.93538870106357
CZ-8A R/B               
1 66004U 25231K   26156.52286074 -.00000057  00000+0  38308-4 0  9991
2 66004  50.0036  88.9409 0116477 182.9341 177.0904 14.30151625 33275
SZ-21 MODULE            
1 66515U 25246C   26152.94156862  .00047427  00000+0  30885-3 0  9999
2 66515  41.4749  42.1841 0007101 261.1371  98.8669 15.75039202 31334
